{
    "links": {
        "self": "http://www.neowsapp.com/rest/v1/neo/3720438?api_key=iIulBulltgU6a56xZRHN4H3l9WmuAYTsLGpBGhQ2"
    },
    "id": "3720438",
    "neo_reference_id": "3720438",
    "name": "(2015 KP122)",
    "designation": "2015 KP122",
    "nasa_jpl_url": "http://ssd.jpl.nasa.gov/sbdb.cgi?sstr=3720438",
    "absolute_magnitude_h": 26.5,
    "estimated_diameter": {
        "kilometers": {
            "estimated_diameter_min": 0.0133215567,
            "estimated_diameter_max": 0.0297879063
        },
        "meters": {
            "estimated_diameter_min": 13.3215566698,
            "estimated_diameter_max": 29.7879062798
        },
        "miles": {
            "estimated_diameter_min": 0.008277629,
            "estimated_diameter_max": 0.0185093411
        },
        "feet": {
            "estimated_diameter_min": 43.7058959846,
            "estimated_diameter_max": 97.7293544391
        }
    },
    "is_potentially_hazardous_asteroid": false,
    "close_approach_data": [
        {
            "close_approach_date": "2015-05-26",
            "close_approach_date_full": "2015-May-26 19:42",
            "epoch_date_close_approach": 1432669320000,
            "relative_velocity": {
                "kilometers_per_second": "10.4790385197",
                "kilometers_per_hour": "37724.5386708826",
                "miles_per_hour": "23440.5612646937"
            },
            "miss_distance": {
                "astronomical": "0.0399428654",
                "lunar": "15.5377746406",
                "kilometers": "5975367.585536698",
                "miles": "3712921.2472065124"
            },
            "orbiting_body": "Earth"
        },
        {
            "close_approach_date": "2154-11-02",
            "close_approach_date_full": "2154-Nov-02 12:58",
            "epoch_date_close_approach": 5832910680000,
            "relative_velocity": {
                "kilometers_per_second": "7.2692554876",
                "kilometers_per_hour": "26169.3197552971",
                "miles_per_hour": "16260.5976001733"
            },
            "miss_distance": {
                "astronomical": "1.9119011011",
                "lunar": "743.7295283279",
                "kilometers": "286016332.375214657",
                "miles": "177722307.8450379866"
            },
            "orbiting_body": "Juptr"
        }
    ],
    "orbital_data": {
        "orbit_id": "8",
        "orbit_determination_date": "2017-04-06 08:33:23",
        "first_observation_date": "2015-05-26",
        "last_observation_date": "2015-05-31",
        "data_arc_in_days": 5,
        "observations_used": 36,
        "orbit_uncertainty": "8",
        "minimum_orbit_intersection": ".039244",
        "jupiter_tisserand_invariant": "3.174",
        "epoch_osculation": "2457169.5",
        "eccentricity": ".5830315475295258",
        "semi_major_axis": "2.508041884576587",
        "inclination": "13.03818584069097",
        "ascending_node_longitude": "241.1953781380629",
        "orbital_period": "1450.776807932762",
        "perihelion_distance": "1.045774343343031",
        "perihelion_argument": "11.69560477345477",
        "aphelion_distance": "3.970309425810143",
        "perihelion_time": "2457176.366963051535",
        "mean_anomaly": "358.2960117055668",
        "mean_motion": ".2481429245570657",
        "equinox": "J2000",
        "orbit_class": {
            "orbit_class_type": "AMO",
            "orbit_class_description": "Near-Earth asteroid orbits similar to that of 1221 Amor",
            "orbit_class_range": "1.017 AU < q (perihelion) < 1.3 AU"
        }
    },
    "is_sentry_object": false
}